start=new Date('2021-12-23T00:00:00.000Z').valueOf();
sats=[{"MEAN_MOTION":"15.06387259","NORAD_CAT_ID":"47800","PERIOD":"95.593","RA_OF_ASC_NODE":"296.5203","FILE":"3247523","CLASSIFICATION_TYPE":"U","COUNTRY_CODE":"US","MEAN_ANOMALY":"305.5898","PERIAPSIS":"545.888","ARG_OF_PERICENTER":"54.5275","EPHEMERIS_TYPE":"0","RCS_SIZE":"LARGE","OBJECT_ID":"2021-018P","ELEMENT_SET_NO":"999","MEAN_MOTION_DDOT":"0.0000000000000","TLE_LINE1":"1 47800U 21018P   21356.56754649 -.00000688  00000-0 -27261-4 0  9990","GP_ID":"192218965","BSTAR":"-0.00002726100000","REF_FRAME":"TEME","CENTER_NAME":"EARTH","LAUNCH_DATE":"2021-03-11","TIME_SYSTEM":"UTC","INCLINATION":"53.0566","MEAN_ELEMENT_THEORY":"SGP4","SITE":"AFETR","EPOCH":"2021-12-22T13:37:16.016736","DECAY_DATE":null,"REV_AT_EPOCH":"4504","ECCENTRICITY":"0.00019700","OBJECT_TYPE":"PAYLOAD","APOAPSIS":"548.617","TLE_LINE2":"2 47800  53.0566 296.5203 0001970  54.5275 305.5898 15.06387259 45045","MEAN_MOTION_DOT":"-0.00000688","OBJECT_NAME":"STARLINK-2381","SEMIMAJOR_AXIS":"6925.388"},{"TLE_LINE2":"2 47801  53.0558 303.8679 0001781  50.3741 309.7405 15.06340448 44901","APOAPSIS":"548.630","MEAN_MOTION_DOT":"0.00069580","REV_AT_EPOCH":"4490","ECCENTRICITY":"0.00017810","OBJECT_TYPE":"PAYLOAD","SEMIMAJOR_AXIS":"6925.531","OBJECT_NAME":"STARLINK-2382","INCLINATION":"53.0558","CENTER_NAME":"EARTH","TIME_SYSTEM":"UTC","LAUNCH_DATE":"2021-03-11","SITE":"AFETR","DECAY_DATE":null,"EPOCH":"2021-12-22T01:42:46.794816","MEAN_ELEMENT_THEORY":"SGP4","ELEMENT_SET_NO":"999","OBJECT_ID":"2021-018Q","EPHEMERIS_TYPE":"0","ARG_OF_PERICENTER":"50.3741","PERIAPSIS":"546.163","RCS_SIZE":"LARGE","REF_FRAME":"TEME","TLE_LINE1":"1 47801U 21018Q   21356.07137494  .00069580  00000-0  46517-2 0  9997","MEAN_MOTION_DDOT":"0.0000000000000","BSTAR":"0.00465170000000","GP_ID":"192217713","RA_OF_ASC_NODE":"303.8679","FILE":"3247523","MEAN_MOTION":"15.06340448","PERIOD":"95.596","NORAD_CAT_ID":"47801","MEAN_ANOMALY":"309.7405","CLASSIFICATION_TYPE":"U","COUNTRY_CODE":"US"},{"SEMIMAJOR_AXIS":"6925.404","OBJECT_NAME":"STARLINK-2383","MEAN_MOTION_DOT":"-0.00004677","APOAPSIS":"548.044","TLE_LINE2":"2 47802  53.0480 321.1799 0001119 178.6517 181.4476 15.06381979 44369","ECCENTRICITY":"0.00011190","OBJECT_TYPE":"PAYLOAD","REV_AT_EPOCH":"4436","EPOCH":"2021-12-22T15:33:21.550176","DECAY_DATE":null,"SITE":"AFETR","MEAN_ELEMENT_THEORY":"SGP4","INCLINATION":"53.0480","TIME_SYSTEM":"UTC","LAUNCH_DATE":"2021-03-11","CENTER_NAME":"EARTH","REF_FRAME":"TEME","GP_ID":"192223128","BSTAR":"-0.00029544000000","MEAN_MOTION_DDOT":"0.0000000000000","TLE_LINE1":"1 47802U 21018R   21356.64816609 -.00004677  00000-0 -29544-3 0  9993","ELEMENT_SET_NO":"999","OBJECT_ID":"2021-018R","RCS_SIZE":"LARGE","PERIAPSIS":"546.494","ARG_OF_PERICENTER":"178.6517","EPHEMERIS_TYPE":"0","MEAN_ANOMALY":"181.4476","COUNTRY_CODE":"US","CLASSIFICATION_TYPE":"U","FILE":"3247616","RA_OF_ASC_NODE":"321.1799","PERIOD":"95.593","NORAD_CAT_ID":"47802","MEAN_MOTION":"15.06381979"},{"INCLINATION":"53.0547","TIME_SYSTEM":"UTC","LAUNCH_DATE":"2021-03-11","CENTER_NAME":"EARTH","DECAY_DATE":null,"EPOCH":"2021-12-22T02:44:23.424864","SITE":"AFETR","MEAN_ELEMENT_THEORY":"SGP4","MEAN_MOTION_DOT":"-0.00003862","TLE_LINE2":"2 47803  53.0547 298.5585 0001868  52.3077 307.8082 15.06395605 44979","APOAPSIS":"548.521","OBJECT_TYPE":"PAYLOAD","ECCENTRICITY":"0.00018680","REV_AT_EPOCH":"4497","SEMIMAJOR_AXIS":"6925.362","OBJECT_NAME":"STARLINK-2384","FILE":"3247523","RA_OF_ASC_NODE":"298.5585","NORAD_CAT_ID":"47803","PERIOD":"95.592","MEAN_MOTION":"15.06395605","MEAN_ANOMALY":"307.8082","COUNTRY_CODE":"US","CLASSIFICATION_TYPE":"U","ELEMENT_SET_NO":"999","OBJECT_ID":"2021-018S","RCS_SIZE":"LARGE","ARG_OF_PERICENTER":"52.3077","EPHEMERIS_TYPE":"0","PERIAPSIS":"545.933","REF_FRAME":"TEME","BSTAR":"-0.00024052000000","GP_ID":"192218715","TLE_LINE1":"1 47803U 21018S   21356.11416001 -.00003862  00000-0 -24052-3 0  9992","MEAN_MOTION_DDOT":"0.0000000000000"},{"CENTER_NAME":"EARTH","TIME_SYSTEM":"UTC","LAUNCH_DATE":"2021-03-11","INCLINATION":"53.0563","MEAN_ELEMENT_THEORY":"SGP4","SITE":"AFETR","EPOCH":"2021-12-22T07:52:15.412224","DECAY_DATE":null,"REV_AT_EPOCH":"4500","OBJECT_TYPE":"PAYLOAD","ECCENTRICITY":"0.00018500","APOAPSIS":"548.517","TLE_LINE2":"2 47804  53.0563 297.5872 0001850  61.2733 298.8441 15.06392749 45004","MEAN_MOTION_DOT":"-0.00002282","OBJECT_NAME":"STARLINK-2385","SEMIMAJOR_AXIS":"6925.371","MEAN_MOTION":"15.06392749","NORAD_CAT_ID":"47804","PERIOD":"95.593","RA_OF_ASC_NODE":"297.5872","FILE":"3247523","CLASSIFICATION_TYPE":"U","COUNTRY_CODE":"US","MEAN_ANOMALY":"298.8441","PERIAPSIS":"545.955","ARG_OF_PERICENTER":"61.2733","EPHEMERIS_TYPE":"0","RCS_SIZE":"LARGE","ELEMENT_SET_NO":"999","OBJECT_ID":"2021-018T","MEAN_MOTION_DDOT":"0.0000000000000","TLE_LINE1":"1 47804U 21018T   21356.32795616 -.00002282  00000-0 -13436-3 0  9997","GP_ID":"192219466","BSTAR":"-0.00013436000000","REF_FRAME":"TEME"},{"MEAN_MOTION_DOT":"-0.00002202","TLE_LINE2":"2 47805  53.0555 296.6443 0002139  62.4614 297.6592 15.06381901 45048","APOAPSIS":"548.750","ECCENTRICITY":"0.00021390","OBJECT_TYPE":"PAYLOAD","REV_AT_EPOCH":"4504","SEMIMAJOR_AXIS":"6925.404","OBJECT_NAME":"STARLINK-2386","INCLINATION":"53.0555","LAUNCH_DATE":"2021-03-11","TIME_SYSTEM":"UTC","CENTER_NAME":"EARTH","DECAY_DATE":null,"EPOCH":"2021-12-22T12:53:26.639232","SITE":"AFETR","MEAN_ELEMENT_THEORY":"SGP4","ELEMENT_SET_NO":"999","OBJECT_ID":"2021-018U","RCS_SIZE":"MEDIUM","EPHEMERIS_TYPE":"0","ARG_OF_PERICENTER":"62.4614","PERIAPSIS":"545.788","REF_FRAME":"TEME","BSTAR":"-0.00012903000000","GP_ID":"192218214","TLE_LINE1":"1 47805U 21018U   21356.53711388 -.00002202  00000-0 -12903-3 0  9995","MEAN_MOTION_DDOT":"0.0000000000000","FILE":"3247523","RA_OF_ASC_NODE":"296.6443","PERIOD":"95.593","NORAD_CAT_ID":"47805","MEAN_MOTION":"15.06381901","MEAN_ANOMALY":"297.6592","COUNTRY_CODE":"US","CLASSIFICATION_TYPE":"U"},{"BSTAR":"-0.00010367000000","GP_ID":"192217963","TLE_LINE1":"1 47806U 21018V   21356.29797564 -.00001825  00000-0 -10367-3 0  9991","MEAN_MOTION_DDOT":"0.0000000000000","REF_FRAME":"TEME","RCS_SIZE":"LARGE","ARG_OF_PERICENTER":"58.4114","EPHEMERIS_TYPE":"0","PERIAPSIS":"545.917","ELEMENT_SET_NO":"999","OBJECT_ID":"2021-018V","COUNTRY_CODE":"US","CLASSIFICATION_TYPE":"U","MEAN_ANOMALY":"301.7060","NORAD_CAT_ID":"47806","PERIOD":"95.593","MEAN_MOTION":"15.06392483","FILE":"3247523","RA_OF_ASC_NODE":"312.7359","OBJECT_NAME":"STARLINK-2387","SEMIMAJOR_AXIS":"6925.372","OBJECT_TYPE":"PAYLOAD","ECCENTRICITY":"0.00019050","REV_AT_EPOCH":"4485","MEAN_MOTION_DOT":"-0.00001825","TLE_LINE2":"2 47806  53.0551 312.7359 0001905  58.4114 301.7060 15.06392483 44853","APOAPSIS":"548.556","MEAN_ELEMENT_THEORY":"SGP4","DECAY_DATE":null,"EPOCH":"2021-12-22T07:09:05.095296","SITE":"AFETR","LAUNCH_DATE":"2021-03-11","TIME_SYSTEM":"UTC","CENTER_NAME":"EARTH","INCLINATION":"53.0551"},{"ELEMENT_SET_NO":"999","OBJECT_ID":"2021-018W","RCS_SIZE":"LARGE","PERIAPSIS":"545.968","EPHEMERIS_TYPE":"0","ARG_OF_PERICENTER":"61.2697","REF_FRAME":"TEME","GP_ID":"192223160","BSTAR":"-0.00020518000000","MEAN_MOTION_DDOT":"0.0000000000000","TLE_LINE1":"1 47807U 21018W   21356.55372915 -.00003335  00000-0 -20518-3 0  9997","FILE":"3247623","RA_OF_ASC_NODE":"286.5750","NORAD_CAT_ID":"47807","PERIOD":"95.593","MEAN_MOTION":"15.06385962","MEAN_ANOMALY":"298.8478","COUNTRY_CODE":"US","CLASSIFICATION_TYPE":"U","MEAN_MOTION_DOT":"-0.00003335","APOAPSIS":"548.545","TLE_LINE2":"2 47807  53.0523 286.5750 0001860  61.2697 298.8478 15.06385962 44835","ECCENTRICITY":"0.00018600","OBJECT_TYPE":"PAYLOAD","REV_AT_EPOCH":"4483","SEMIMAJOR_AXIS":"6925.392","OBJECT_NAME":"STARLINK-2388","INCLINATION":"53.0523","TIME_SYSTEM":"UTC","LAUNCH_DATE":"2021-03-11","CENTER_NAME":"EARTH","EPOCH":"2021-12-22T13:17:22.198560","DECAY_DATE":null,"SITE":"AFETR","MEAN_ELEMENT_THEORY":"SGP4"},{"OBJECT_ID":"2021-018X","ELEMENT_SET_NO":"999","RCS_SIZE":"LARGE","EPHEMERIS_TYPE":"0","ARG_OF_PERICENTER":"59.6104","PERIAPSIS":"545.981","REF_FRAME":"TEME","BSTAR":"-0.00025142000000","GP_ID":"192218966","TLE_LINE1":"1 47808U 21018X   21356.31735694 -.00004023  00000-0 -25142-3 0  9992","MEAN_MOTION_DDOT":"0.0000000000000","FILE":"3247523","RA_OF_ASC_NODE":"312.6518","PERIOD":"95.593","NORAD_CAT_ID":"47808","MEAN_MOTION":"15.06384042","MEAN_ANOMALY":"300.5067","COUNTRY_CODE":"US","CLASSIFICATION_TYPE":"U","MEAN_MOTION_DOT":"-0.00004023","TLE_LINE2":"2 47808  53.0557 312.6518 0001850  59.6104 300.5067 15.06384042 44854","APOAPSIS":"548.544","OBJECT_TYPE":"PAYLOAD","ECCENTRICITY":"0.00018500","REV_AT_EPOCH":"4485","SEMIMAJOR_AXIS":"6925.397","OBJECT_NAME":"STARLINK-2389","INCLINATION":"53.0557","TIME_SYSTEM":"UTC","LAUNCH_DATE":"2021-03-11","CENTER_NAME":"EARTH","DECAY_DATE":null,"EPOCH":"2021-12-22T07:36:59.639616","SITE":"AFETR","MEAN_ELEMENT_THEORY":"SGP4"},{"REF_FRAME":"TEME","TLE_LINE1":"1 47809U 21018Y   21356.58781237 -.00000887  00000-0 -40669-4 0  9992","MEAN_MOTION_DDOT":"0.0000000000000","BSTAR":"-0.00004066900000","GP_ID":"192225846","ELEMENT_SET_NO":"999","OBJECT_ID":"2021-018Y","ARG_OF_PERICENTER":"56.9383","EPHEMERIS_TYPE":"0","PERIAPSIS":"545.961","RCS_SIZE":"LARGE","MEAN_ANOMALY":"303.1783","CLASSIFICATION_TYPE":"U","COUNTRY_CODE":"US","RA_OF_ASC_NODE":"316.4174","FILE":"3247711","MEAN_MOTION":"15.06393978","NORAD_CAT_ID":"47809","PERIOD":"95.593","SEMIMAJOR_AXIS":"6925.367","OBJECT_NAME":"STARLINK-2390","TLE_LINE2":"2 47809  53.0562 316.4174 0001836  56.9383 303.1783 15.06393978 44429","APOAPSIS":"548.504","MEAN_MOTION_DOT":"-0.00000887","REV_AT_EPOCH":"4442","OBJECT_TYPE":"PAYLOAD","ECCENTRICITY":"0.00018360","SITE":"AFETR","DECAY_DATE":null,"EPOCH":"2021-12-22T14:06:26.988768","MEAN_ELEMENT_THEORY":"SGP4","INCLINATION":"53.0562","CENTER_NAME":"EARTH","TIME_SYSTEM":"UTC","LAUNCH_DATE":"2021-03-11"}];
